{
    "links": {
        "self": "http://www.neowsapp.com/rest/v1/neo/3728372?api_key=iIulBulltgU6a56xZRHN4H3l9WmuAYTsLGpBGhQ2"
    },
    "id": "3728372",
    "neo_reference_id": "3728372",
    "name": "(2015 SR)",
    "designation": "2015 SR",
    "nasa_jpl_url": "http://ssd.jpl.nasa.gov/sbdb.cgi?sstr=3728372",
    "absolute_magnitude_h": 24.5,
    "estimated_diameter": {
        "kilometers": {
            "estimated_diameter_min": 0.0334622374,
            "estimated_diameter_max": 0.0748238376
        },
        "meters": {
            "estimated_diameter_min": 33.4622374455,
            "estimated_diameter_max": 74.8238376074
        },
        "miles": {
            "estimated_diameter_min": 0.0207924639,
            "estimated_diameter_max": 0.0464933628
        },
        "feet": {
            "estimated_diameter_min": 109.7842471007,
            "estimated_diameter_max": 245.4850393757
        }
    },
    "is_potentially_hazardous_asteroid": false,
    "close_approach_data": [
        {
            "close_approach_date": "1963-02-15",
            "close_approach_date_full": "1963-Feb-15 05:37",
            "epoch_date_close_approach": -217016580000,
            "relative_velocity": {
                "kilometers_per_second": "26.6899094789",
                "kilometers_per_hour": "96083.6741241991",
                "miles_per_hour": "59702.6585134503"
            },
            "miss_distance": {
                "astronomical": "0.4702390735",
                "lunar": "182.9229995915",
                "kilometers": "70346763.786373445",
                "miles": "43711452.089885741"
            },
            "orbiting_body": "Earth"
        },
        {
            "close_approach_date": "1963-05-05",
            "close_approach_date_full": "1963-May-05 16:11",
            "epoch_date_close_approach": -210152940000,
            "relative_velocity": {
                "kilometers_per_second": "14.9477624239",
                "kilometers_per_hour": "53811.9447260584",
                "miles_per_hour": "33436.6497660333"
            },
            "miss_distance": {
                "astronomical": "0.0620394087",
                "lunar": "24.1333299843",
                "kilometers": "9280963.397579469",
                "miles": "5766923.2394719122"
            },
            "orbiting_body": "Mars"
        },
        {
            "close_approach_date": "2015-10-03",
            "close_approach_date_full": "2015-Oct-03 01:00",
            "epoch_date_close_approach": 1443834000000,
            "relative_velocity": {
                "kilometers_per_second": "11.6643771329",
                "kilometers_per_hour": "41991.7576785289",
                "miles_per_hour": "26092.0452086393"
            },
            "miss_distance": {
                "astronomical": "0.0376923127",
                "lunar": "14.6623096403",
                "kilometers": "5638689.695293949",
                "miles": "3503719.3070325362"
            },
            "orbiting_body": "Earth"
        }
    ],
    "orbital_data": {
        "orbit_id": "7",
        "orbit_determination_date": "2017-04-06 08:31:50",
        "first_observation_date": "2015-09-18",
        "last_observation_date": "2015-09-23",
        "data_arc_in_days": 5,
        "observations_used": 37,
        "orbit_uncertainty": "8",
        "minimum_orbit_intersection": ".0155267",
        "jupiter_tisserand_invariant": "3.724",
        "epoch_osculation": "2457285.5",
        "eccentricity": ".560993055718391",
        "semi_major_axis": "1.911240789794641",
        "inclination": "3.461118320388104",
        "ascending_node_longitude": "350.430878212184",
        "orbital_period": "965.0982658007164",
        "perihelion_distance": ".8390479789141145",
        "perihelion_argument": "71.84224381736989",
        "aphelion_distance": "2.983433600675168",
        "perihelion_time": "2457336.866342540456",
        "mean_anomaly": "340.8393777402326",
        "mean_motion": ".3730190103505342",
        "equinox": "J2000",
        "orbit_class": {
            "orbit_class_type": "APO",
            "orbit_class_description": "Near-Earth asteroid orbits which cross the Earth’s orbit similar to that of 1862 Apollo",
            "orbit_class_range": "a (semi-major axis) > 1.0 AU; q (perihelion) < 1.017 AU"
        }
    },
    "is_sentry_object": false
}